{
  "type": "FeatureCollection",
  "features": [
    {
      "type": "Feature",
      "properties": {
        "norad_id": 66443,
        "name": "STARLINK-35219",
        "group": "last-30-days",
        "lat": 34.802426701812166,
        "lon": -176.19123267229878,
        "alt_km": 439.1265780121739,
        "timestamp": "2025-12-11T22:43:46.022454+00:00",
        "meta_object_name": "STARLINK-35219",
        "meta_object_id": "2025-259X",
        "meta_epoch": "2025-12-11T14:00:01.999872",
        "meta_mean_motion": 15.40642964,
        "meta_eccentricity": 0.00010052,
        "meta_inclination": 43.0009,
        "meta_ra_of_asc_node": 54.1405,
        "meta_arg_of_pericenter": 283.8758,
        "meta_mean_anomaly": 339.5851,
        "meta_ephemeris_type": 0,
        "meta_classification_type": "U",
        "meta_norad_cat_id": 66443,
        "meta_element_set_no": 999,
        "meta_rev_at_epoch": 598,
        "meta_bstar": 0.0020860505,
        "meta_mean_motion_dot": 0.00087676,
        "meta_mean_motion_ddot": 0,
        "tle_line1": "1 66443U 25259X   25345.58335648  .00087676  00000+0  20861-2 0  9999",
        "tle_line2": "2 66443  43.0009  54.1405 0001005 283.8758 339.5851 15.40642964  5984"
      },
      "geometry": {
        "type": "Point",
        "coordinates": [
          -176.19123267229878,
          34.802426701812166
        ]
      }
    },
    {
      "type": "Feature",
      "properties": {
        "norad_id": 66444,
        "name": "STARLINK-35360",
        "group": "last-30-days",
        "lat": 13.245139281275376,
        "lon": -142.67676424229347,
        "alt_km": 440.3349896020454,
        "timestamp": "2025-12-11T22:43:46.022465+00:00",
        "meta_object_name": "STARLINK-35360",
        "meta_object_id": "2025-259Y",
        "meta_epoch": "2025-12-11T14:00:01.999872",
        "meta_mean_motion": 15.43281226,
        "meta_eccentricity": 0.00018508,
        "meta_inclination": 43.0011,
        "meta_ra_of_asc_node": 54.0552,
        "meta_arg_of_pericenter": 269.5033,
        "meta_mean_anomaly": 28.929,
        "meta_ephemeris_type": 0,
        "meta_classification_type": "U",
        "meta_norad_cat_id": 66444,
        "meta_element_set_no": 999,
        "meta_rev_at_epoch": 609,
        "meta_bstar": -0.056702367,
        "meta_mean_motion_dot": -0.02307398,
        "meta_mean_motion_ddot": 0,
        "tle_line1": "1 66444U 25259Y   25345.58335648 -.02307398  00000+0 -56702-1 0  9992",
        "tle_line2": "2 66444  43.0011  54.0552 0001850 269.5033  28.9290 15.43281226  6097"
      },
      "geometry": {
        "type": "Point",
        "coordinates": [
          -142.67676424229347,
          13.245139281275376
        ]
      }
    },
    {
      "type": "Feature",
      "properties": {
        "norad_id": 66445,
        "name": "STARLINK-34698",
        "group": "last-30-days",
        "lat": 28.50813748126021,
        "lon": -163.63753657267736,
        "alt_km": 440.7894907525033,
        "timestamp": "2025-12-11T22:43:46.022479+00:00",
        "meta_object_name": "STARLINK-34698",
        "meta_object_id": "2025-259Z",
        "meta_epoch": "2025-12-11T14:00:01.999872",
        "meta_mean_motion": 15.40609185,
        "meta_eccentricity": 0.00020158,
        "meta_inclination": 43.001,
        "meta_ra_of_asc_node": 54.1091,
        "meta_arg_of_pericenter": 288.0999,
        "meta_mean_anomaly": 347.7991,
        "meta_ephemeris_type": 0,
        "meta_classification_type": "U",
        "meta_norad_cat_id": 66445,
        "meta_element_set_no": 999,
        "meta_rev_at_epoch": 598,
        "meta_bstar": 0.0025136056,
        "meta_mean_motion_dot": 0.00105846,
        "meta_mean_motion_ddot": 0,
        "tle_line1": "1 66445U 25259Z   25345.58335648  .00105846  00000+0  25136-2 0  9991",
        "tle_line2": "2 66445  43.0010  54.1091 0002015 288.0999 347.7991 15.40609185  5989"
      },
      "geometry": {
        "type": "Point",
        "coordinates": [
          -163.63753657267736,
          28.50813748126021
        ]
      }
    },
    {
      "type": "Feature",
      "properties": {
        "norad_id": 66446,
        "name": "STARLINK-34986",
        "group": "last-30-days",
        "lat": 21.109239820104662,
        "lon": -152.49142177557388,
        "alt_km": 441.6726268909024,
        "timestamp": "2025-12-11T22:43:46.022490+00:00",
        "meta_object_name": "STARLINK-34986",
        "meta_object_id": "2025-259AA",
        "meta_epoch": "2025-12-11T14:00:01.999872",
        "meta_mean_motion": 15.4141536,
        "meta_eccentricity": 0.00012736,
        "meta_inclination": 43.001,
        "meta_ra_of_asc_node": 54.0793,
        "meta_arg_of_pericenter": 279.7438,
        "meta_mean_anomaly": 8.2072,
        "meta_ephemeris_type": 0,
        "meta_classification_type": "U",
        "meta_norad_cat_id": 66446,
        "meta_element_set_no": 999,
        "meta_rev_at_epoch": 609,
        "meta_bstar": -0.026066871,
        "meta_mean_motion_dot": -0.01014219,
        "meta_mean_motion_ddot": 0,
        "tle_line1": "1 66446U 25259AA  25345.58335648 -.01014219  00000+0 -26067-1 0  9991",
        "tle_line2": "2 66446  43.0010  54.0793 0001273 279.7438   8.2072 15.41415360  6091"
      },
      "geometry": {
        "type": "Point",
        "coordinates": [
          -152.49142177557388,
          21.109239820104662
        ]
      }
    },
    {
      "type": "Feature",
      "properties": {
        "norad_id": 66447,
        "name": "STARLINK-34851",
        "group": "last-30-days",
        "lat": -11.53512204566626,
        "lon": -115.48894811966842,
        "alt_km": 415.0513581012938,
        "timestamp": "2025-12-11T22:43:46.022501+00:00",
        "meta_object_name": "STARLINK-34851",
        "meta_object_id": "2025-259AB",
        "meta_epoch": "2025-12-10T05:41:44.121408",
        "meta_mean_motion": 15.50651186,
        "meta_eccentricity": 0.0001321,
        "meta_inclination": 42.9984,
        "meta_ra_of_asc_node": 61.8661,
        "meta_arg_of_pericenter": 284.8329,
        "meta_mean_anomaly": 75.2384,
        "meta_ephemeris_type": 0,
        "meta_classification_type": "U",
        "meta_norad_cat_id": 66447,
        "meta_element_set_no": 999,
        "meta_rev_at_epoch": 567,
        "meta_bstar": 0.0017574,
        "meta_mean_motion_dot": 0.00104412,
        "meta_mean_motion_ddot": 0,
        "tle_line1": "1 66447U 25259AB  25344.23731622  .00104412  00000+0  17574-2 0  9991",
        "tle_line2": "2 66447  42.9984  61.8661 0001321 284.8329  75.2384 15.50651186  5671"
      },
      "geometry": {
        "type": "Point",
        "coordinates": [
          -115.48894811966842,
          -11.53512204566626
        ]
      }
    },
    {
      "type": "Feature",
      "properties": {
        "norad_id": 66448,
        "name": "STARLINK-35355",
        "group": "last-30-days",
        "lat": -14.128665821636238,
        "lon": -112.47825779217125,
        "alt_km": 413.875792463994,
        "timestamp": "2025-12-11T22:43:46.022512+00:00",
        "meta_object_name": "STARLINK-35355",
        "meta_object_id": "2025-259AC",
        "meta_epoch": "2025-12-11T12:35:48.635808",
        "meta_mean_motion": 15.51423561,
        "meta_eccentricity": 0.00054567,
        "meta_inclination": 43.001,
        "meta_ra_of_asc_node": 54.3241,
        "meta_arg_of_pericenter": 293.1921,
        "meta_mean_anomaly": 66.8365,
        "meta_ephemeris_type": 0,
        "meta_classification_type": "U",
        "meta_norad_cat_id": 66448,
        "meta_element_set_no": 999,
        "meta_rev_at_epoch": 598,
        "meta_bstar": 0.0027883046,
        "meta_mean_motion_dot": 0.00172055,
        "meta_mean_motion_ddot": 0,
        "tle_line1": "1 66448U 25259AC  25345.52486847  .00172055  00000+0  27883-2 0  9993",
        "tle_line2": "2 66448  43.0010  54.3241 0005456 293.1921  66.8365 15.51423561  5983"
      },
      "geometry": {
        "type": "Point",
        "coordinates": [
          -112.47825779217125,
          -14.128665821636238
        ]
      }
    },
    {
      "type": "Feature",
      "properties": {
        "norad_id": 66449,
        "name": "STARLINK-34720",
        "group": "last-30-days",
        "lat": -6.002588149065845,
        "lon": -121.63783999534785,
        "alt_km": 430.59808383465133,
        "timestamp": "2025-12-11T22:43:46.022523+00:00",
        "meta_object_name": "STARLINK-34720",
        "meta_object_id": "2025-259AD",
        "meta_epoch": "2025-12-11T14:00:01.999872",
        "meta_mean_motion": 15.47065084,
        "meta_eccentricity": 0.00010241,
        "meta_inclination": 43.0013,
        "meta_ra_of_asc_node": 53.9974,
        "meta_arg_of_pericenter": 274.7358,
        "meta_mean_anomaly": 47.0232,
        "meta_ephemeris_type": 0,
        "meta_classification_type": "U",
        "meta_norad_cat_id": 66449,
        "meta_element_set_no": 999,
        "meta_rev_at_epoch": 598,
        "meta_bstar": -0.043475364,
        "meta_mean_motion_dot": -0.02009914,
        "meta_mean_motion_ddot": 0,
        "tle_line1": "1 66449U 25259AD  25345.58335648 -.02009914  00000+0 -43475-1 0  9993",
        "tle_line2": "2 66449  43.0013  53.9974 0001024 274.7358  47.0232 15.47065084  5982"
      },
      "geometry": {
        "type": "Point",
        "coordinates": [
          -121.63783999534785,
          -6.002588149065845
        ]
      }
    }
  ]
}